CCSDS_OMM_VERS,COMMENT,CREATION_DATE,ORIGINATOR,OBJECT_NAME,OBJECT_ID,CENTER_NAME,REF_FRAME,TIME_SYSTEM,MEAN_ELEMENT_THEORY,EPOCH,MEAN_MOTION,ECCENTRICITY,INCLINATION,RA_OF_ASC_NODE,ARG_OF_PERICENTER,MEAN_ANOMALY,EPHEMERIS_TYPE,CLASSIFICATION_TYPE,NORAD_CAT_ID,ELEMENT_SET_NO,REV_AT_EPOCH,BSTAR,MEAN_MOTION_DOT,MEAN_MOTION_DDOT,SEMIMAJOR_AXIS,PERIOD,APOAPSIS,PERIAPSIS,OBJECT_TYPE,RCS_SIZE,COUNTRY_CODE,LAUNCH_DATE,SITE,DECAY_DATE,FILE,GP_ID,TLE_LINE0,TLE_LINE1,TLE_LINE2
"3.0","GENERATED VIA SPACE-TRACK.ORG API","2026-03-18T04:49:44","18 SPCS","COSMOS 2535 DEB","2019-039L","EARTH","TEME","UTC","SGP4","2026-03-17T21:56:18.945024","14.78967417","0.00596119","97.7577","64.3487","12.0615","348.2008","0","U","44640","999","34699","0.00021734183000","0.00001600","0.0000000000000","7010.722","97.365","674.380","590.795","DEBRIS","SMALL","CIS","2019-07-10","PKMTR","","5089495","316270592","0 COSMOS 2535 DEB","1 44640U 19039L   26076.91410816  .00001600  00000-0  21734-3 0  9998","2 44640  97.7577  64.3487 0059612  12.0615 348.2008 14.78967417346992"
"3.0","GENERATED VIA SPACE-TRACK.ORG API","2026-03-18T04:49:44","18 SPCS","CZ-4C DEB","2018-031G","EARTH","TEME","UTC","SGP4","2026-03-17T15:49:47.086464","15.02310995","0.00086987","97.7687","160.2850","209.3901","150.6836","0","U","43265","999","43069","0.00046303580000","0.00006062","0.0000000000000","6937.909","95.852","565.809","553.739","DEBRIS","LARGE","PRC","2018-03-31","TSC","","5089495","316269784","0 CZ-4C DEB","1 43265U 18031G   26076.65957276  .00006062  00000-0  46304-3 0  9995","2 43265  97.7687 160.2850 0008699 209.3901 150.6836 15.02310995430690"
"3.0","GENERATED VIA SPACE-TRACK.ORG API","2025-04-09T17:16:24","18 SPCS","PSLV DEB","2001-049PT","EARTH","TEME","UTC","SGP4","2012-02-03T20:31:55.825536","14.68335919","0.00487430","97.7722","2.3658","221.5748","116.7175","0","U","35335","999","35059","0.00003811400000","0.00000176","0.0000000000000","7044.522","98.070","700.725","632.050","DEBRIS","SMALL","IND","2001-10-22","SRI","","4696433","285198473","0 PSLV DEB","1 35335U 01049PT  12034.85550724  .00000176  00000-0  38114-4 0  9994","2 35335  97.7722   2.3658 0048743 221.5748 116.7175 14.68335919350593"
"3.0","GENERATED VIA SPACE-TRACK.ORG API","2026-03-17T17:21:16","18 SPCS","CZ-4B DEB","2006-015D","EARTH","TEME","UTC","SGP4","2026-03-17T11:23:40.017408","14.74697414","0.01196611","97.7831","89.3821","55.9273","305.3226","0","U","29537","999","4833","0.00076585279000","0.00005693","0.0000000000000","7024.249","97.647","730.167","562.061","DEBRIS","SMALL","PRC","2006-04-26","TSC","","5088782","316213462","0 CZ-4B DEB","1 29537U 06015D   26076.47476872  .00005693  00000-0  76585-3 0  9991","2 29537  97.7831  89.3821 0119661  55.9273 305.3226 14.74697414 48335"
"3.0","GENERATED VIA SPACE-TRACK.ORG API","2026-03-18T04:49:44","18 SPCS","CZ-4C DEB","2018-031C","EARTH","TEME","UTC","SGP4","2026-03-17T22:41:52.714464","15.00199976","0.00055586","97.7836","161.1221","202.5638","157.5342","0","U","43261","999","43072","0.00038780778000","0.00004789","0.0000000000000","6944.416","95.987","570.141","562.421","DEBRIS","LARGE","PRC","2018-03-31","TSC","","5089495","316269782","0 CZ-4C DEB","1 43261U 18031C   26076.94574901  .00004789  00000-0  38781-3 0  9997","2 43261  97.7836 161.1221 0005559 202.5638 157.5342 15.00199976430722"
"3.0","GENERATED VIA SPACE-TRACK.ORG API","2026-03-18T04:49:44","18 SPCS","PSLV DEB","2016-059K","EARTH","TEME","UTC","SGP4","2026-03-17T22:17:15.010080","14.79201508","0.00226274","97.7843","101.1821","88.5436","271.8368","0","U","41792","999","50738","0.00036956936000","0.00002704","0.0000000000000","7009.983","97.350","647.709","615.986","DEBRIS","LARGE","IND","2016-09-26","SRI","","5089495","316268869","0 PSLV DEB","1 41792U 16059K   26076.92864595  .00002704  00000-0  36957-3 0  9999","2 41792  97.7843 101.1821 0022627  88.5436 271.8368 14.79201508507385"
"3.0","GENERATED VIA SPACE-TRACK.ORG API","2025-04-09T17:26:22","18 SPCS","STRIX-BETA DEB","2022-020D","EARTH","TEME","UTC","SGP4","2022-11-18T21:36:18.081792","15.00472801","0.00159530","97.7893","16.3828","150.1717","210.0419","0","U","53460","999","1628","0.00009111900000","0.00001088","0.0000000000000","6943.574","95.970","576.516","554.362","DEBRIS","MEDIUM","JPN","2022-02-28","RLLC","","4696733","285207452","0 STRIX-BETA DEB","1 53460U 22020D   22322.90020928  .00001088  00000-0  91119-4 0  9997","2 53460  97.7893  16.3828 0015953 150.1717 210.0419 15.00472801 16288"
"3.0","GENERATED VIA SPACE-TRACK.ORG API","2026-03-16T02:37:31","18 SPCS","DELTA 1 DEB","1972-058JN","EARTH","TEME","UTC","SGP4","2026-03-15T17:07:06.918528","14.72903288","0.00114676","97.7903","59.6531","269.1192","270.2776","0","U","42555","999","66061","0.00018865436000","0.00001162","0.0000000000000","7029.952","97.766","659.879","643.755","DEBRIS","SMALL","US","1972-07-23","AFWTR","","5087165","316087798","0 DELTA 1 DEB","1 42555U 72058JN  26074.71327452  .00001162  00000-0  18865-3 0  9994","2 42555  97.7903  59.6531 0011468 269.1192 270.2776 14.72903288660611"
"3.0","GENERATED VIA SPACE-TRACK.ORG API","2026-03-17T17:21:16","18 SPCS","CZ-4C DEB","2018-031K","EARTH","TEME","UTC","SGP4","2026-03-17T11:13:06.953376","14.95681820","0.00041735","97.7984","161.7275","219.1395","140.9524","0","U","44616","999","41250","0.00028260949000","0.00003086","0.0000000000000","6958.394","96.277","583.163","577.355","DEBRIS","SMALL","PRC","2018-03-31","TSC","","5088782","316221753","0 CZ-4C DEB","1 44616U 18031K   26076.46744159  .00003086  00000-0  28261-3 0  9994","2 44616  97.7984 161.7275 0004174 219.1395 140.9524 14.95681820412503"
"3.0","GENERATED VIA SPACE-TRACK.ORG API","2026-03-17T17:21:16","18 SPCS","CZ-4C DEB","2015-069D","EARTH","TEME","UTC","SGP4","2026-03-17T13:58:25.952448","14.76629966","0.01127588","97.7986","300.8663","309.1428","49.9802","0","U","42671","999","54297","0.00047079552000","0.00003596","0.0000000000000","7018.119","97.519","719.119","560.848","DEBRIS","SMALL","PRC","2015-11-26","TSC","","5088782","316220827","0 CZ-4C DEB","1 42671U 15069D   26076.58224482  .00003596  00000-0  47080-3 0  9992","2 42671  97.7986 300.8663 0112759 309.1428  49.9802 14.76629966542971"
"3.0","GENERATED VIA SPACE-TRACK.ORG API","2026-03-18T04:49:44","18 SPCS","SL-24 DEB","2007-012D","EARTH","TEME","UTC","SGP4","2026-03-17T21:38:23.088768","14.84843947","0.00076687","97.7986","40.7253","48.2525","311.9344","0","U","31120","999","1893","0.00020334292000","0.00001676","0.0000000000000","6992.213","96.980","619.440","608.716","DEBRIS","MEDIUM","CIS","2007-04-17","TTMTR","","5089495","316263285","0 SL-24 DEB","1 31120U 07012D   26076.90165612  .00001676  00000-0  20334-3 0  9993","2 31120  97.7986  40.7253 0007669  48.2525 311.9344 14.84843947 18938"
"3.0","GENERATED VIA SPACE-TRACK.ORG API","2026-03-17T17:21:16","18 SPCS","DELTA 1 DEB","1975-004BL","EARTH","TEME","UTC","SGP4","2026-03-17T10:32:42.705024","14.87551109","0.00271005","97.7986","149.3941","156.1436","204.1043","0","U","8978","999","65368","0.00021314723000","0.00001892","0.0000000000000","6983.727","96.803","624.518","586.666","DEBRIS","MEDIUM","US","1975-01-22","AFWTR","","5088782","316206809","0 DELTA 1 DEB","1 08978U 75004BL  26076.43938316  .00001892  00000-0  21315-3 0  9991","2 08978  97.7986 149.3941 0027101 156.1436 204.1043 14.87551109653681"
"3.0","GENERATED VIA SPACE-TRACK.ORG API","2026-03-18T04:49:44","18 SPCS","CZ-2C DEB","2013-035D","EARTH","TEME","UTC","SGP4","2026-03-17T21:54:15.353280","14.88993528","0.00558538","97.8139","77.1058","100.1519","260.6004","0","U","39205","999","67469","0.00073977588000","0.00007110","0.0000000000000","6979.216","96.710","640.063","562.099","DEBRIS","SMALL","PRC","2013-07-15","JSC","","5089495","316267069","0 CZ-2C DEB","1 39205U 13035D   26076.91267770  .00007110  00000-0  73978-3 0  9997","2 39205  97.8139  77.1058 0055854 100.1519 260.6004 14.88993528674697"
"3.0","GENERATED VIA SPACE-TRACK.ORG API","2026-03-18T04:49:44","18 SPCS","CZ-4C DEB","2010-038F","EARTH","TEME","UTC","SGP4","2026-03-17T15:26:13.089984","14.75291327","0.01222989","97.8396","148.7198","157.0892","203.5839","0","U","37570","999","82476","0.00068581792000","0.00005193","0.0000000000000","7022.364","97.608","730.111","558.346","DEBRIS","SMALL","PRC","2010-08-09","TSC","","5089495","316266084","0 CZ-4C DEB","1 37570U 10038F   26076.64320706  .00005193  00000-0  68582-3 0  9993","2 37570  97.8396 148.7198 0122299 157.0892 203.5839 14.75291327824769"
"3.0","GENERATED VIA SPACE-TRACK.ORG API","2025-04-09T17:06:23","18 SPCS","PSLV DEB","2001-049QC","EARTH","TEME","UTC","SGP4","2023-06-12T22:12:07.949664","14.72220612","0.00482740","97.8420","195.1018","219.1815","246.1525","0","U","35344","999","62","0.00285290000000","0.00018323","0.0000000000000","7032.125","97.811","687.937","620.043","DEBRIS","SMALL","IND","2001-10-22","SRI","","4696056","285186409","0 PSLV DEB","1 35344U 01049QC  23163.92509201  .00018323  00000-0  28529-2 0  9991","2 35344  97.8420 195.1018 0048274 219.1815 246.1525 14.72220612   628"
"3.0","GENERATED VIA SPACE-TRACK.ORG API","2026-03-18T04:49:44","18 SPCS","DELTA 1 DEB","1972-058JY","EARTH","TEME","UTC","SGP4","2026-03-17T16:32:29.977440","14.55755135","0.00375526","97.8602","237.4543","107.5388","252.9919","0","U","42565","999","65315","0.00015573659000","0.00000645","0.0000000000000","7085.051","98.918","733.522","680.309","DEBRIS","SMALL","US","1972-07-23","AFWTR","","5089495","316269608","0 DELTA 1 DEB","1 42565U 72058JY  26076.68923585  .00000645  00000-0  15574-3 0  9991","2 42565  97.8602 237.4543 0037553 107.5388 252.9919 14.55755135653157"
